STARLINK-1830           
1 46727U 20073BK  26023.42310268  .00081014  00000+0  17278-2 0  9997
2 46727  53.0482  40.6197 0005011 321.5780  38.4868 15.44205200290933
STARLINK-1848           
1 46740U 20074B   26024.00002315  .00319633  00000+0  20777-2 0  9998
2 46740  53.0408 119.1153 0006372 330.7614 340.3152 15.74473177  5960
STARLINK-1892           
1 46743U 20074E   26023.77582551  .00087884  00000+0  22047-2 0  9991
2 46743  53.0489 147.4121 0007928 183.6897 176.4049 15.39272530290136
STARLINK-1894           
1 46744U 20074F   26023.48455429  .00075552  00000+0  10841-2 0  9991
2 46744  53.0479 141.1058 0006846 213.2065 146.8516 15.55459496290193
STARLINK-1905           
1 46746U 20074H   26023.91312854  .00181943  00000+0  30471-2 0  9998
2 46746  53.0507 140.8030 0007380 204.0850 155.9814 15.50705784290233
STARLINK-1911           
1 46749U 20074L   26024.00002315  .00156281  00000+0  21388-2 0  9994
2 46749  53.0512 137.6630 0008904 200.9871 229.3729 15.56360657  5926
STARLINK-1922           
1 46753U 20074Q   26023.97578551  .00191656  00000+0  31551-2 0  9992
2 46753  53.0503 140.7991 0009208 205.9918 154.0629 15.51135510290248
STARLINK-1928           
1 46758U 20074V   26023.50797879  .00097410  00000+0  14710-2 0  9993
2 46758  53.0502 145.0927 0009084 199.9269 160.1387 15.53929999290144
STARLINK-1832           
1 46780U 20074AT  26024.00002315  .00193905  00000+0  24446-2 0  9991
2 46780  53.0481 127.7859 0005169 259.5291  57.2806 15.58443161  5923
STARLINK-1835           
1 46782U 20074AV  26023.67928414  .00084164  00000+0  14641-2 0  9994
2 46782  53.0485 132.2523 0009496 196.5560 163.5140 15.50046683290337
STARLINK-1882           
1 46784U 20074AX  26023.71643945  .00155729  00000+0  28477-2 0  9992
2 46784  53.0568 132.3951 0004795 307.5686  52.4885 15.48328620290330
STARLINK-1893           
1 46786U 20074AZ  26023.62387883  .00130670  00000+0  32655-2 0  9991
2 46786  53.0525 118.5242 0007209 220.0501 139.9971 15.39179416290527
STARLINK-1931           
1 46790U 20074BD  26023.86703015  .00196238  00000+0  31857-2 0  9996
2 46790  53.0467 141.0597 0008608 198.7212 161.3482 15.51514988290229
STARLINK-1934           
1 46792U 20074BF  26024.00002315  .00187496  00000+0  22552-2 0  9998
2 46792  53.0479 127.3724 0006961 227.1919  20.7507 15.59699294  5978
STARLINK-1942           
1 46794U 20074BH  26023.72401710  .00120475  00000+0  29741-2 0  9991
2 46794  53.0491 147.8674 0006722 189.9364 170.1508 15.39603877290123
STARLINK-1944           
1 46796U 20074BK  26024.00002315  .00155035  00000+0  23475-2 0  9991
2 46796  53.0488 128.3403 0005543 198.2605 233.4869 15.53632827  5968
