[{"OBJECT_NAME":"STARLINK-1830","OBJECT_ID":"2020-073BK","EPOCH":"2026-01-23T10:09:16.071552","MEAN_MOTION":15.442052,"ECCENTRICITY":0.00050115,"INCLINATION":53.0482,"RA_OF_ASC_NODE":40.6197,"ARG_OF_PERICENTER":321.578,"MEAN_ANOMALY":38.4868,"EPHEMERIS_TYPE":0,"CLASSIFICATION_TYPE":"U","NORAD_CAT_ID":46727,"ELEMENT_SET_NO":999,"REV_AT_EPOCH":29093,"BSTAR":0.0017277724,"MEAN_MOTION_DOT":0.00081014,"MEAN_MOTION_DDOT":0},{"OBJECT_NAME":"STARLINK-1848","OBJECT_ID":"2020-074B","EPOCH":"2026-01-24T00:00:02.000160","MEAN_MOTION":15.74473177,"ECCENTRICITY":0.00063725,"INCLINATION":53.0408,"RA_OF_ASC_NODE":119.1153,"ARG_OF_PERICENTER":330.7614,"MEAN_ANOMALY":340.3152,"EPHEMERIS_TYPE":0,"CLASSIFICATION_TYPE":"U","NORAD_CAT_ID":46740,"ELEMENT_SET_NO":999,"REV_AT_EPOCH":596,"BSTAR":0.002077687,"MEAN_MOTION_DOT":0.00319633,"MEAN_MOTION_DDOT":0},{"OBJECT_NAME":"STARLINK-1892","OBJECT_ID":"2020-074E","EPOCH":"2026-01-23T18:37:11.324064","MEAN_MOTION":15.3927253,"ECCENTRICITY":0.00079281,"INCLINATION":53.0489,"RA_OF_ASC_NODE":147.4121,"ARG_OF_PERICENTER":183.6897,"MEAN_ANOMALY":176.4049,"EPHEMERIS_TYPE":0,"CLASSIFICATION_TYPE":"U","NORAD_CAT_ID":46743,"ELEMENT_SET_NO":999,"REV_AT_EPOCH":29013,"BSTAR":0.0022047355,"MEAN_MOTION_DOT":0.00087884,"MEAN_MOTION_DDOT":0},{"OBJECT_NAME":"STARLINK-1894","OBJECT_ID":"2020-074F","EPOCH":"2026-01-23T11:37:45.490656","MEAN_MOTION":15.55459496,"ECCENTRICITY":0.00068461,"INCLINATION":53.0479,"RA_OF_ASC_NODE":141.1058,"ARG_OF_PERICENTER":213.2065,"MEAN_ANOMALY":146.8516,"EPHEMERIS_TYPE":0,"CLASSIFICATION_TYPE":"U","NORAD_CAT_ID":46744,"ELEMENT_SET_NO":999,"REV_AT_EPOCH":29019,"BSTAR":0.0010840914,"MEAN_MOTION_DOT":0.00075552,"MEAN_MOTION_DDOT":0},{"OBJECT_NAME":"STARLINK-1905","OBJECT_ID":"2020-074H","EPOCH":"2026-01-23T21:54:54.305856","MEAN_MOTION":15.50705784,"ECCENTRICITY":0.00073802,"INCLINATION":53.0507,"RA_OF_ASC_NODE":140.803,"ARG_OF_PERICENTER":204.085,"MEAN_ANOMALY":155.9814,"EPHEMERIS_TYPE":0,"CLASSIFICATION_TYPE":"U","NORAD_CAT_ID":46746,"ELEMENT_SET_NO":999,"REV_AT_EPOCH":29023,"BSTAR":0.0030470652,"MEAN_MOTION_DOT":0.00181943,"MEAN_MOTION_DDOT":0},{"OBJECT_NAME":"STARLINK-1911","OBJECT_ID":"2020-074L","EPOCH":"2026-01-24T00:00:02.000160","MEAN_MOTION":15.56360657,"ECCENTRICITY":0.00089044,"INCLINATION":53.0512,"RA_OF_ASC_NODE":137.663,"ARG_OF_PERICENTER":200.9871,"MEAN_ANOMALY":229.3729,"EPHEMERIS_TYPE":0,"CLASSIFICATION_TYPE":"U","NORAD_CAT_ID":46749,"ELEMENT_SET_NO":999,"REV_AT_EPOCH":592,"BSTAR":0.0021388371,"MEAN_MOTION_DOT":0.00156281,"MEAN_MOTION_DDOT":0},{"OBJECT_NAME":"STARLINK-1922","OBJECT_ID":"2020-074Q","EPOCH":"2026-01-23T23:25:07.868064","MEAN_MOTION":15.5113551,"ECCENTRICITY":0.00092082,"INCLINATION":53.0503,"RA_OF_ASC_NODE":140.7991,"ARG_OF_PERICENTER":205.9918,"MEAN_ANOMALY":154.0629,"EPHEMERIS_TYPE":0,"CLASSIFICATION_TYPE":"U","NORAD_CAT_ID":46753,"ELEMENT_SET_NO":999,"REV_AT_EPOCH":29024,"BSTAR":0.003155085,"MEAN_MOTION_DOT":0.00191656,"MEAN_MOTION_DDOT":0},{"OBJECT_NAME":"STARLINK-1928","OBJECT_ID":"2020-074V","EPOCH":"2026-01-23T12:11:29.367456","MEAN_MOTION":15.53929999,"ECCENTRICITY":0.00090842,"INCLINATION":53.0502,"RA_OF_ASC_NODE":145.0927,"ARG_OF_PERICENTER":199.9269,"MEAN_ANOMALY":160.1387,"EPHEMERIS_TYPE":0,"CLASSIFICATION_TYPE":"U","NORAD_CAT_ID":46758,"ELEMENT_SET_NO":999,"REV_AT_EPOCH":29014,"BSTAR":0.0014709582,"MEAN_MOTION_DOT":0.0009741,"MEAN_MOTION_DDOT":0},{"OBJECT_NAME":"STARLINK-1832","OBJECT_ID":"2020-074AT","EPOCH":"2026-01-24T00:00:02.000160","MEAN_MOTION":15.58443161,"ECCENTRICITY":0.00051694,"INCLINATION":53.0481,"RA_OF_ASC_NODE":127.7859,"ARG_OF_PERICENTER":259.5291,"MEAN_ANOMALY":57.2806,"EPHEMERIS_TYPE":0,"CLASSIFICATION_TYPE":"U","NORAD_CAT_ID":46780,"ELEMENT_SET_NO":999,"REV_AT_EPOCH":592,"BSTAR":0.0024446417,"MEAN_MOTION_DOT":0.00193905,"MEAN_MOTION_DDOT":0},{"OBJECT_NAME":"STARLINK-1835","OBJECT_ID":"2020-074AV","EPOCH":"2026-01-23T16:18:10.149696","MEAN_MOTION":15.50046683,"ECCENTRICITY":0.00094967,"INCLINATION":53.0485,"RA_OF_ASC_NODE":132.2523,"ARG_OF_PERICENTER":196.556,"MEAN_ANOMALY":163.514,"EPHEMERIS_TYPE":0,"CLASSIFICATION_TYPE":"U","NORAD_CAT_ID":46782,"ELEMENT_SET_NO":999,"REV_AT_EPOCH":29033,"BSTAR":0.0014640698,"MEAN_MOTION_DOT":0.00084164,"MEAN_MOTION_DDOT":0},{"OBJECT_NAME":"STARLINK-1882","OBJECT_ID":"2020-074AX","EPOCH":"2026-01-23T17:11:40.368480","MEAN_MOTION":15.4832862,"ECCENTRICITY":0.0004795,"INCLINATION":53.0568,"RA_OF_ASC_NODE":132.3951,"ARG_OF_PERICENTER":307.5686,"MEAN_ANOMALY":52.4885,"EPHEMERIS_TYPE":0,"CLASSIFICATION_TYPE":"U","NORAD_CAT_ID":46784,"ELEMENT_SET_NO":999,"REV_AT_EPOCH":29033,"BSTAR":0.0028476982,"MEAN_MOTION_DOT":0.00155729,"MEAN_MOTION_DDOT":0},{"OBJECT_NAME":"STARLINK-1893","OBJECT_ID":"2020-074AZ","EPOCH":"2026-01-23T14:58:23.130912","MEAN_MOTION":15.39179416,"ECCENTRICITY":0.00072091,"INCLINATION":53.0525,"RA_OF_ASC_NODE":118.5242,"ARG_OF_PERICENTER":220.0501,"MEAN_ANOMALY":139.9971,"EPHEMERIS_TYPE":0,"CLASSIFICATION_TYPE":"U","NORAD_CAT_ID":46786,"ELEMENT_SET_NO":999,"REV_AT_EPOCH":29052,"BSTAR":0.0032655007,"MEAN_MOTION_DOT":0.0013067,"MEAN_MOTION_DDOT":0},{"OBJECT_NAME":"STARLINK-1931","OBJECT_ID":"2020-074BD","EPOCH":"2026-01-23T20:48:31.404960","MEAN_MOTION":15.51514988,"ECCENTRICITY":0.00086081,"INCLINATION":53.0467,"RA_OF_ASC_NODE":141.0597,"ARG_OF_PERICENTER":198.7212,"MEAN_ANOMALY":161.3482,"EPHEMERIS_TYPE":0,"CLASSIFICATION_TYPE":"U","NORAD_CAT_ID":46790,"ELEMENT_SET_NO":999,"REV_AT_EPOCH":29022,"BSTAR":0.0031856821,"MEAN_MOTION_DOT":0.00196238,"MEAN_MOTION_DDOT":0},{"OBJECT_NAME":"STARLINK-1934","OBJECT_ID":"2020-074BF","EPOCH":"2026-01-24T00:00:02.000160","MEAN_MOTION":15.59699294,"ECCENTRICITY":0.00069619,"INCLINATION":53.0479,"RA_OF_ASC_NODE":127.3724,"ARG_OF_PERICENTER":227.1919,"MEAN_ANOMALY":20.7507,"EPHEMERIS_TYPE":0,"CLASSIFICATION_TYPE":"U","NORAD_CAT_ID":46792,"ELEMENT_SET_NO":999,"REV_AT_EPOCH":597,"BSTAR":0.0022551716,"MEAN_MOTION_DOT":0.00187496,"MEAN_MOTION_DDOT":0},{"OBJECT_NAME":"STARLINK-1942","OBJECT_ID":"2020-074BH","EPOCH":"2026-01-23T17:22:35.077440","MEAN_MOTION":15.39603877,"ECCENTRICITY":0.00067224,"INCLINATION":53.0491,"RA_OF_ASC_NODE":147.8674,"ARG_OF_PERICENTER":189.9364,"MEAN_ANOMALY":170.1508,"EPHEMERIS_TYPE":0,"CLASSIFICATION_TYPE":"U","NORAD_CAT_ID":46794,"ELEMENT_SET_NO":999,"REV_AT_EPOCH":29012,"BSTAR":0.0029741453,"MEAN_MOTION_DOT":0.00120475,"MEAN_MOTION_DDOT":0},{"OBJECT_NAME":"STARLINK-1944","OBJECT_ID":"2020-074BK","EPOCH":"2026-01-24T00:00:02.000160","MEAN_MOTION":15.53632827,"ECCENTRICITY":0.00055435,"INCLINATION":53.0488,"RA_OF_ASC_NODE":128.3403,"ARG_OF_PERICENTER":198.2605,"MEAN_ANOMALY":233.4869,"EPHEMERIS_TYPE":0,"CLASSIFICATION_TYPE":"U","NORAD_CAT_ID":46796,"ELEMENT_SET_NO":999,"REV_AT_EPOCH":596,"BSTAR":0.0023475477,"MEAN_MOTION_DOT":0.00155035,"MEAN_MOTION_DDOT":0}]
